[ {"name": "STARLINK-31038", "line1": "1 58605U 23200S   26104.33651392  .00026964  00000+0  95763-3 0  9995", "line2": "2 58605  43.0053 327.4468 0002650 277.9942  82.0609 15.28529593129060"}, {"name": "STARLINK-31082", "line1": "1 58606U 23200T   26103.61758269  .00048966  00000+0  17975-2 0  9991", "line2": "2 58606  43.0043 331.5093 0003155 253.6651 106.3854 15.27202001128959"}, {"name": "STARLINK-31069", "line1": "1 58607U 23200U   26104.34465703 -.00001264  00000+0 -36392-4 0  9999", "line2": "2 58607  43.0091 327.4998 0002073 260.3569  99.7049 15.27585356129063"}, {"name": "STARLINK-31067", "line1": "1 58608U 23200V   26103.95619852 -.00001839  00000+0 -57287-4 0  9996", "line2": "2 58608  43.0044 329.7487 0001745 271.4862  88.5790 15.27584506129003"}, {"name": "STARLINK-31085", "line1": "1 58609U 23200W   26103.96005283  .00000271  00000+0  19384-4 0  9998", "line2": "2 58609  43.0046 329.7721 0001572 264.5923  95.4749 15.27579846129008"}, {"name": "STARLINK-31089", "line1": "1 58610U 23200X   26103.96981851  .00000603  00000+0  32169-4 0  9999", "line2": "2 58610  43.0025 329.7919 0001482 265.0160  95.0522 15.26746299129007"}, {"name": "STARLINK-31061", "line1": "1 58611U 23200Y   26104.02798348  .00003589  00000+0  13983-3 0  9993", "line2": "2 58611  43.0030 329.4158 0001397 237.3009 122.7708 15.27591607129012"}, {"name": "STARLINK-31054", "line1": "1 58619U 23203B   26104.61252057  .00002005  00000+0  82403-4 0  9997", "line2": "2 58619  43.0014 224.3622 0001402 265.4451  94.6240 15.27570618129052"}, {"name": "STARLINK-31134", "line1": "1 58621U 23203D   26104.63436291  .00000765  00000+0  37331-4 0  9997", "line2": "2 58621  43.0000 224.5250 0001048 276.9412  83.1320 15.27574196129056"}, {"name": "STARLINK-31133", "line1": "1 58622U 23203E   26104.60866275 -.00003286  00000+0 -10987-3 0  9994", "line2": "2 58622  43.0003 224.3355 0001122 255.5259 104.5468 15.27597010129050"}, {"name": "STARLINK-31068", "line1": "1 58623U 23203F   26104.34326931 -.00000301  00000+0 -13949-5 0  9994", "line2": "2 58623  43.0024 225.7837 0001644 261.4926  98.5739 15.27572505129011"}, {"name": "STARLINK-31129", "line1": "1 58624U 23203G   26104.60224844  .00024745  00000+0  90413-3 0  9999", "line2": "2 58624  43.0014 224.2871 0001145 260.8060  99.2662 15.27638215129059"}, {"name": "STARLINK-30774", "line1": "1 58625U 23203H   26104.59836171  .00006121  00000+0  23175-3 0  9999", "line2": "2 58625  43.0042 224.2563 0002250 262.8375  97.2221 15.27583580129051"}, {"name": "STARLINK-31086", "line1": "1 58626U 23203J   26104.63807491 -.00000900  00000+0 -23187-4 0  9993", "line2": "2 58626  43.0008 223.6974 0000786 262.6769  97.3994 15.27574788129069"}, {"name": "STARLINK-31065", "line1": "1 58627U 23203K   26104.38810512 -.00002081  00000+0 -66147-4 0  9999", "line2": "2 58627  43.0029 225.2699 0001145 270.0916  89.9804 15.27568217129025"}, {"name": "STARLINK-31092", "line1": "1 58628U 23203L   26104.59453384 -.00000555  00000+0 -10643-4 0  9997", "line2": "2 58628  43.0028 224.2269 0001444 251.1364 108.9331 15.27571989129056"}, {"name": "STARLINK-31091", "line1": "1 58629U 23203M   26104.61717114  .00000328  00000+0  21443-4 0  9991", "line2": "2 58629  43.0012 227.8359 0001290 265.0434  95.0270 15.27578053129013"}, {"name": "STARLINK-31084", "line1": "1 58630U 23203N   26104.61330372 -.00013603  00000+0 -48492-3 0  9994", "line2": "2 58630  43.0020 227.8073 0001268 238.2495 121.8233 15.27633167129016"}, {"name": "STARLINK-31064", "line1": "1 58631U 23203P   26104.36719175 -.00000311  00000+0 -17993-5 0  9995", "line2": "2 58631  43.0006 229.3972 0000967 270.5107  89.5634 15.27579080130144"}, {"name": "STARLINK-31081", "line1": "1 58632U 23203Q   26104.08122326  .00001665  00000+0  70042-4 0  9995", "line2": "2 58632  43.0037 230.6926 0002169 257.4820 102.5789 15.27580377130165"}, {"name": "STARLINK-31022", "line1": "1 58633U 23203R   26104.63646235 -.00001020  00000+0 -27549-4 0  9998", "line2": "2 58633  42.9993 227.9789 0001004 264.5804  95.4933 15.27571100130243"}, {"name": "STARLINK-31025", "line1": "1 58634U 23203S   26104.31626977 -.00000585  00000+0 -11731-4 0  9996", "line2": "2 58634  43.0033 225.5064 0000775 268.0141  92.0622 15.27574699130242"}, {"name": "STARLINK-31018", "line1": "1 58635U 23203T   26104.03561052 -.00000099  00000+0  59223-5 0  9996", "line2": "2 58635  43.0013 227.7759 0001369 276.7583  83.3112 15.27571998130192"}, {"name": "STARLINK-31008", "line1": "1 58636U 23203U   26104.62665047 -.00004837  00000+0 -16623-3 0  9991", "line2": "2 58636  43.0019 224.4703 0002082 279.3404  80.7212 15.27601104130281"}, {"name": "STARLINK-31077", "line1": "1 58637U 23203V   26104.62022943 -.00000815  00000+0 -20086-4 0  9995", "line2": "2 58637  43.0000 224.4234 0001103 274.1004  85.9722 15.27579306130284"}, {"name": "STARLINK-31078", "line1": "1 58638U 23203W   26104.61637934 -.00000254  00000+0  30772-6 0  9998", "line2": "2 58638  43.0008 224.3950 0001184 275.2823  84.7894 15.27571979129055"}, {"name": "STARLINK-31070", "line1": "1 58639U 23203X   26104.36897151 -.00001205  00000+0 -34288-4 0  9992", "line2": "2 58639  43.0008 225.9777 0001045 272.5937  87.4795 15.27567709129014"}, {"name": "STARLINK-31090", "line1": "1 58640U 23203Y   26104.60820404 -.00001228  00000+0 -35122-4 0  9991", "line2": "2 58640  43.0011 216.5510 0000890 268.2022  91.8728 15.27576989129155"}, {"name": "STARLINK-31113", "line1": "1 58668U 23211B   26104.36145529  .00000029  00000+0  10564-4 0  9990", "line2": "2 58668  43.0016 243.5262 0001255 276.2246  83.8462 15.27575358127925"}, {"name": "STARLINK-31128", "line1": "1 58669U 23211C   26104.44354527 -.00000449  00000+0 -67682-5 0  9992", "line2": "2 58669  43.0042 243.2788 0001700 269.3812  90.6845 15.27574996127931"}, {"name": "STARLINK-31083", "line1": "1 58670U 23211D   26104.42298635 -.00002373  00000+0 -76732-4 0  9992", "line2": "2 58670  43.0026 243.1255 0000587 279.1959  80.8827 15.27584581127938"}, {"name": "STARLINK-30828", "line1": "1 58671U 23211E   26104.64998701  .00004530  00000+0  17412-3 0  9992", "line2": "2 58671  43.0029 242.2484 0001267 260.5732  99.4976 15.27564467127960"}, {"name": "STARLINK-31104", "line1": "1 58672U 23211F   26104.63822908  .00064110  00000+0  15419-2 0  9991", "line2": "2 58672  42.9946 238.6802 0015086 345.4316  14.6104 15.40335139129281"}, {"name": "STARLINK-31131", "line1": "1 58673U 23211G   26103.64363675  .00000296  00000+0  20271-4 0  9992", "line2": "2 58673  43.0017 237.0780 0001585 263.9212  96.1459 15.27574053129215"}, {"name": "STARLINK-31124", "line1": "1 58674U 23211H   26104.36530982  .00002076  00000+0  84932-4 0  9992", "line2": "2 58674  43.0025 243.5561 0001158 273.5616  86.5103 15.27577833127929"}, {"name": "STARLINK-31126", "line1": "1 58675U 23211J   26104.41527551 -.00000665  00000+0 -14640-4 0  9990", "line2": "2 58675  43.0009 243.0603 0001128 276.8754  83.1969 15.27576782127936"}, {"name": "STARLINK-31066", "line1": "1 58676U 23211K   26104.21265976  .00000247  00000+0  18495-4 0  9995", "line2": "2 58676  43.0038  30.4382 0001372 271.5692  88.5002 15.27579166127469"}, {"name": "STARLINK-31058", "line1": "1 58677U 23211L   26104.43326664 -.00003780  00000+0 -12786-3 0  9995", "line2": "2 58677  43.0041 243.2045 0000707 283.7392  76.3381 15.27591654127930"}, {"name": "STARLINK-31125", "line1": "1 58678U 23211M   26104.39100632  .00000520  00000+0  28439-4 0  9996", "line2": "2 58678  43.0032 243.7432 0001348 254.2065 105.8638 15.27577184129092"}, {"name": "STARLINK-31110", "line1": "1 58679U 23211N   26104.11018917  .00001143  00000+0  51056-4 0  9994", "line2": "2 58679  43.0037 245.0809 0001463 274.1404  85.9281 15.27577510127887"}, {"name": "STARLINK-31112", "line1": "1 58680U 23211P   26104.44483038 -.00000332  00000+0 -25287-5 0  9991", "line2": "2 58680  43.0034 243.2894 0001404 258.7824 101.2870 15.27577980129114"}, {"name": "STARLINK-31147", "line1": "1 58681U 23211Q   26103.74100230  .00001289  00000+0  56371-4 0  9991", "line2": "2 58681  43.0024 247.4685 0001326 273.6544  86.4156 15.27575561127826"}, {"name": "STARLINK-31144", "line1": "1 58682U 23211R   26104.41786024  .00003267  00000+0  12826-3 0  9992", "line2": "2 58682  43.0027 243.0791 0001162 255.9102 104.1621 15.27564209127935"}, {"name": "STARLINK-31095", "line1": "1 58683U 23211S   26104.40772047  .00000062  00000+0  11768-4 0  9997", "line2": "2 58683  43.0001 243.8662 0001254 272.9020  87.1688 15.27566024129193"}, {"name": "STARLINK-31107", "line1": "1 58684U 23211T   26104.41414542 -.00000314  00000+0 -18999-5 0  9998", "line2": "2 58684  43.0000 243.9136 0001088 278.5745  81.4983 15.27562860127929"}, {"name": "STARLINK-31121", "line1": "1 58685U 23211U   26104.42170016 -.00001590  00000+0 -48266-4 0  9991", "line2": "2 58685  43.0009 243.1095 0001362 271.6380  88.4316 15.27571884127933"}, {"name": "STARLINK-31137", "line1": "1 58686U 23211V   26104.39229360  .00000080  00000+0  12444-4 0  9995", "line2": "2 58686  42.9990 243.7483 0001373 252.7777 107.2925 15.27574288127926"}, {"name": "STARLINK-31106", "line1": "1 58689U 23211Y   26103.79611089  .00007864  00000+0  29486-3 0  9994", "line2": "2 58689  43.0048 247.0189 0001743 270.0999  89.9652 15.27596343127834"}, {"name": "STARLINK-11072 [DTC]", "line1": "1 58705U 24002A   26104.38426699 -.00015088  00000+0 -11975-3 0  9992", "line2": "2 58705  53.1569  98.0555 0000543  60.0750 300.0322 15.69741966132042"}, {"name": "STARLINK-11075 [DTC]", "line1": "1 58706U 24002B   26104.38918305 -.00003876  00000+0 -27119-4 0  9993", "line2": "2 58706  53.1609  98.0925 0000824  86.0612 274.0500 15.69739479132040"}, {"name": "STARLINK-11077 [DTC]", "line1": "1 58707U 24002C   26104.26676537  .00001063  00000+0  13637-4 0  9993", "line2": "2 58707  53.1584  98.7331 0000938  78.0019 282.1104 15.69698805132024"}]